OBJECT_NAME,OBJECT_ID,EPOCH,MEAN_MOTION,ECCENTRICITY,INCLINATION,RA_OF_ASC_NODE,ARG_OF_PERICENTER,MEAN_ANOMALY,EPHEMERIS_TYPE,CLASSIFICATION_TYPE,NORAD_CAT_ID,ELEMENT_SET_NO,REV_AT_EPOCH,BSTAR,MEAN_MOTION_DOT,MEAN_MOTION_DDOT
ONEWEB-0597,2022-166X,2026-07-18T13:12:23.726304,13.21824277,.0001932,87.9232,237.7447,95.2745,264.8609,0,U,54663,999,17568,-.20531716E-3,-.72E-6,0
ONEWEB-0600,2022-166Y,2026-07-18T12:45:46.230048,13.21825472,.00019988,87.9231,237.7402,100.6652,259.4707,0,U,54664,999,17565,.81991673E-4,.47E-6,0
ONEWEB-0601,2022-166Z,2026-07-18T12:33:38.808576,13.21825186,.00017921,87.9228,237.7576,94.8501,265.2837,0,U,54665,999,17584,.50314151E-4,.34E-6,0
ONEWEB-0602,2022-166AA,2026-07-18T04:27:58.153536,13.21823906,.00019593,87.9229,237.8305,102.0584,258.0770,0,U,54666,999,17564,-.13196417E-3,-.41E-6,0
ONEWEB-0603,2022-166AB,2026-07-18T13:41:27.460608,13.21823616,.00020084,87.9239,237.7146,95.6711,264.4652,0,U,54667,999,17562,-.1925181E-3,-.66E-6,0
ONEWEB-0604,2022-166AC,2026-07-18T13:24:30.023712,13.21824206,.00021412,87.9241,237.7326,97.3463,262.7914,0,U,54668,999,17558,-.14429834E-3,-.47E-6,0
ONEWEB-0605,2022-166AD,2026-07-18T13:14:48.695136,13.21823978,.00017916,87.9230,237.7449,80.1496,279.9840,0,U,54669,999,17565,.23401208E-3,.11E-5,0
ONEWEB-0606,2022-166AE,2026-07-18T13:46:18.298560,13.21825114,.00022305,87.9233,237.7523,98.2215,261.9172,0,U,54670,999,17571,-.23555962E-3,-.84E-6,0
ONEWEB-0607,2022-166AF,2026-07-18T12:57:52.701120,13.21825805,.00019126,87.9235,237.7326,96.7535,263.3817,0,U,54671,999,17568,-.35369286E-4,-.2E-7,0
ONEWEB-0608,2022-166AG,2026-07-18T13:07:32.426112,13.21823754,.00016396,87.9242,237.7287,85.4770,274.6551,0,U,54672,999,17569,.10264141E-4,.17E-6,0
ONEWEB-0610,2022-166AH,2026-07-18T03:33:29.170656,13.21825642,.00014518,87.9231,237.8187,95.0821,265.0479,0,U,54673,999,17554,.63151652E-4,.39E-6,0
ONEWEB-0611,2022-166AJ,2026-07-18T12:28:46.368768,13.21826374,.00022101,87.9228,237.7405,95.6677,264.4709,0,U,54674,999,17558,.79161503E-4,.46E-6,0
ONEWEB-0612,2022-166AK,2026-07-18T12:48:10.521504,13.21826730,.00019053,87.9243,237.7371,93.7031,266.4320,0,U,54675,999,17557,.40693053E-4,.3E-6,0
ONEWEB-0615,2022-166AL,2026-07-18T03:14:05.124192,13.21823668,.00022682,87.9230,237.8283,100.6068,259.5321,0,U,54676,999,17553,.29239344E-3,.134E-5,0
ONEWEB-0655,2022-166AM,2026-07-18T13:34:11.719488,13.21823746,.00019616,87.9232,237.7434,101.3453,258.7901,0,U,54677,999,17558,-.1901421E-3,-.66E-6,0
ONEWEB-0659,2022-166AN,2026-07-18T03:04:24.263904,13.21824947,.00021146,87.9228,237.8297,95.0869,265.0506,0,U,54678,999,17561,.28624989E-3,.131E-5,0
ONEWEB-0685,2022-166AP,2026-07-18T13:57:47.736864,13.21848014,.00017188,87.9229,237.7307,91.0815,269.0516,0,U,54679,999,17556,-.15102436E-3,-.49E-6,0
ONEWEB-0712,2022-166AQ,2026-07-18T01:36:08.400096,13.16595737,.00019167,87.9082,222.6409,107.3670,252.7671,0,U,54680,999,17612,.14691579E-3,.69E-6,0
ONEWEB-0714,2022-166AR,2026-07-18T03:11:41.191296,13.21825839,.00020976,87.9229,237.8186,103.8562,256.2805,0,U,54681,999,17562,.57781335E-4,.37E-6,0
ONEWEB-0532,2023-004A,2026-07-18T09:27:34.178976,13.17648658,.00019099,87.9147,359.6555,82.3437,277.7911,0,U,55140,999,17169,-.86011703E-4,-.21E-6,0
ONEWEB-0533,2023-004B,2026-07-18T09:49:57.913248,13.12441916,.00016628,87.8971,344.4623,98.6699,261.4618,0,U,55141,999,17215,.47925378E-3,.185E-5,0
ONEWEB-0541,2023-004C,2026-07-18T11:08:08.265984,13.11418463,.00020179,87.8894,14.8322,88.4647,271.6713,0,U,55142,999,17004,.81485E-3,.302E-5,0
ONEWEB-0543,2023-004D,2026-07-18T08:22:43.011552,13.18686830,.00019007,87.9192,329.2716,105.4467,254.6876,0,U,55143,999,17380,.18209686E-3,.85E-6,0
ONEWEB-0544,2023-004E,2026-07-18T08:12:59.970528,13.18686416,.00020976,87.9191,329.2722,102.5706,257.5661,0,U,55144,999,17380,-.24557111E-3,-.84E-6,0
ONEWEB-0560,2023-004F,2026-07-18T08:03:18.095040,13.18685045,.00021294,87.9191,329.2635,104.1510,255.9859,0,U,55145,999,17381,.1901788E-3,.88E-6,0
ONEWEB-0565,2023-004G,2026-07-18T02:25:48.102816,13.18686859,.00023021,87.9181,329.3350,94.1841,265.9554,0,U,55146,999,17377,.1282135E-3,.63E-6,0
ONEWEB-0567,2023-004H,2026-07-18T15:00:54.885600,13.18687460,.00022745,87.9191,329.2176,98.0183,262.1207,0,U,55147,999,17384,.21856845E-3,.99E-6,0
ONEWEB-0569,2023-004J,2026-07-18T07:36:39.943872,13.13457106,.00028353,87.8993,314.0267,110.4068,249.7366,0,U,55148,999,17426,.84054712E-2,.3083E-4,0
ONEWEB-0570,2023-004K,2026-07-18T14:48:46.680480,13.18686388,.00019919,87.9190,329.2168,86.6950,273.4410,0,U,55149,999,17383,-.98670728E-4,-.26E-6,0
ONEWEB-0571,2023-004L,2026-07-18T14:39:05.195520,13.18686288,.00031942,87.9193,329.2176,97.6209,262.5286,0,U,55150,999,17384,.24919185E-3,.111E-5,0
