ONEWEB-0597             
1 54663U 22166X   26199.55027461 -.00000072  00000+0 -20532-3 0  9993
2 54663  87.9232 237.7447 0001932  95.2745 264.8609 13.21824277175687
ONEWEB-0600             
1 54664U 22166Y   26199.53178507  .00000047  00000+0  81992-4 0  9998
2 54664  87.9231 237.7402 0001998 100.6652 259.4707 13.21825472175652
ONEWEB-0601             
1 54665U 22166Z   26199.52336584  .00000034  00000+0  50314-4 0  9999
2 54665  87.9228 237.7576 0001792  94.8501 265.2837 13.21825186175842
ONEWEB-0602             
1 54666U 22166AA  26199.18608974 -.00000041  00000+0 -13196-3 0  9993
2 54666  87.9229 237.8305 0001959 102.0584 258.0770 13.21823906175645
ONEWEB-0603             
1 54667U 22166AB  26199.57045672 -.00000066  00000+0 -19252-3 0  9993
2 54667  87.9239 237.7146 0002008  95.6711 264.4652 13.21823616175620
ONEWEB-0604             
1 54668U 22166AC  26199.55868083 -.00000047  00000+0 -14430-3 0  9993
2 54668  87.9241 237.7326 0002141  97.3463 262.7914 13.21824206175588
ONEWEB-0605             
1 54669U 22166AD  26199.55195249  .00000110  00000+0  23401-3 0  9998
2 54669  87.9230 237.7449 0001791  80.1496 279.9840 13.21823978175650
ONEWEB-0606             
1 54670U 22166AE  26199.57382290 -.00000084  00000+0 -23556-3 0  9999
2 54670  87.9233 237.7523 0002230  98.2215 261.9172 13.21825114175716
ONEWEB-0607             
1 54671U 22166AF  26199.54019330 -.00000002  00000+0 -35369-4 0  9995
2 54671  87.9235 237.7326 0001912  96.7535 263.3817 13.21825805175689
ONEWEB-0608             
1 54672U 22166AG  26199.54690308  .00000017  00000+0  10264-4 0  9997
2 54672  87.9242 237.7287 0001639  85.4770 274.6551 13.21823754175698
ONEWEB-0610             
1 54673U 22166AH  26199.14825429  .00000039  00000+0  63152-4 0  9996
2 54673  87.9231 237.8187 0001451  95.0821 265.0479 13.21825642175548
ONEWEB-0611             
1 54674U 22166AJ  26199.51998112  .00000046  00000+0  79162-4 0  9994
2 54674  87.9228 237.7405 0002210  95.6677 264.4709 13.21826374175582
ONEWEB-0612             
1 54675U 22166AK  26199.53345511  .00000030  00000+0  40693-4 0  9996
2 54675  87.9243 237.7371 0001905  93.7031 266.4320 13.21826730175571
ONEWEB-0615             
1 54676U 22166AL  26199.13478153  .00000134  00000+0  29239-3 0  9999
2 54676  87.9230 237.8283 0002268 100.6068 259.5321 13.21823668175539
ONEWEB-0655             
1 54677U 22166AM  26199.56541342 -.00000066  00000+0 -19014-3 0  9994
2 54677  87.9232 237.7434 0001961 101.3453 258.7901 13.21823746175581
ONEWEB-0659             
1 54678U 22166AN  26199.12805861  .00000131  00000+0  28625-3 0  9995
2 54678  87.9228 237.8297 0002114  95.0869 265.0506 13.21824947175616
ONEWEB-0685             
1 54679U 22166AP  26199.58180251 -.00000049  00000+0 -15102-3 0  9991
2 54679  87.9229 237.7307 0001718  91.0815 269.0516 13.21848014175565
ONEWEB-0712             
1 54680U 22166AQ  26199.06676389  .00000069  00000+0  14692-3 0  9991
2 54680  87.9082 222.6409 0001916 107.3670 252.7671 13.16595737176129
ONEWEB-0714             
1 54681U 22166AR  26199.13311564  .00000037  00000+0  57781-4 0  9993
2 54681  87.9229 237.8186 0002097 103.8562 256.2805 13.21825839175622
ONEWEB-0532             
1 55140U 23004A   26199.39414559 -.00000021  00000+0 -86012-4 0  9996
2 55140  87.9147 359.6555 0001909  82.3437 277.7911 13.17648658171694
ONEWEB-0533             
1 55141U 23004B   26199.40969807  .00000185  00000+0  47925-3 0  9998
2 55141  87.8971 344.4623 0001662  98.6699 261.4618 13.12441916172152
ONEWEB-0541             
1 55142U 23004C   26199.46398456  .00000302  00000+0  81485-3 0  9991
2 55142  87.8894  14.8322 0002017  88.4647 271.6713 13.11418463170041
ONEWEB-0543             
1 55143U 23004D   26199.34910893  .00000085  00000+0  18210-3 0  9998
2 55143  87.9192 329.2716 0001900 105.4467 254.6876 13.18686830173804
ONEWEB-0544             
1 55144U 23004E   26199.34236077 -.00000084  00000+0 -24557-3 0  9996
2 55144  87.9191 329.2722 0002097 102.5706 257.5661 13.18686416173807
ONEWEB-0560             
1 55145U 23004F   26199.33562610  .00000088  00000+0  19018-3 0  9999
2 55145  87.9191 329.2635 0002129 104.1510 255.9859 13.18685045173817
ONEWEB-0565             
1 55146U 23004G   26199.10125119  .00000063  00000+0  12821-3 0  9992
2 55146  87.9181 329.3350 0002302  94.1841 265.9554 13.18686859173772
ONEWEB-0567             
1 55147U 23004H   26199.62563525  .00000099  00000+0  21857-3 0  9995
2 55147  87.9191 329.2176 0002274  98.0183 262.1207 13.18687460173840
ONEWEB-0569             
1 55148U 23004J   26199.31712898  .00003083  00000+0  84055-2 0  9995
2 55148  87.8993 314.0267 0002835 110.4068 249.7366 13.13457106174268
ONEWEB-0570             
1 55149U 23004K   26199.61720695 -.00000026  00000+0 -98671-4 0  9990
2 55149  87.9190 329.2168 0001991  86.6950 273.4410 13.18686388173830
ONEWEB-0571             
1 55150U 23004L   26199.61047680  .00000111  00000+0  24919-3 0  9994
2 55150  87.9193 329.2176 0003194  97.6209 262.5286 13.18686288173840
